SAR-LUPE 2              
1 31797U 07030A   26186.59922381  .00041218  00000+0  66337-3 0  9992
2 31797  98.1056 293.3556 0003503 219.9751 140.1243 15.52864839 59792
SARAL                   
1 39086U 13009A   26186.47611835 -.00000047  00000+0 -12981-5 0  9995
2 39086  98.5554  12.8120 0001085 195.8191 164.2959 14.32893598698221
SAOCOM 1A               
1 43641U 18076A   26186.63392036  .00000634  00000+0  86225-4 0  9994
2 43641  97.8885  13.1140 0001562  81.1310 279.0080 14.82164086418833
SAUDISAT 5A             
1 43831U 18102A   26186.63054578  .00006659  00000+0  24417-3 0  9998
2 43831  97.3053 247.8573 0011087  73.3327 286.9129 15.28251380418494
SAUDISAT 5B             
1 43833U 18102C   26186.64634846  .00006465  00000+0  23530-3 0  9993
2 43833  97.3161 250.9759 0011840  74.9162 285.3387 15.28498249418618
RISAT-2B                
1 44233U 19028A   26186.56982094  .00003192  00000+0  24637-3 0  9991
2 44233  36.9964 245.0568 0005030 199.4363 160.6189 15.01769546390599
RISAT-2BR1              
1 44857U 19089F   26186.63827140  .00005097  00000+0  38900-3 0  9992
2 44857  36.9615   2.1201 0013000 319.1644  40.8124 15.01772216359972
SAOCOM 1B               
1 46265U 20059A   26186.66515024  .00000435  00000+0  61247-4 0  9996
2 46265  97.8888  12.2402 0001543  81.2547 278.8841 14.82152556316225
RISAT-2BR2              
1 46905U 20081A   26186.23588306  .00003945  00000+0  30734-3 0  9993
2 46905  36.8985 117.1025 0014817 302.1495  57.7808 15.01136109310182
RESURS-P 4              
1 59371U 24061A   26186.61491480  .00003469  00000+0  11391-3 0  9993
2 59371  97.2758 134.1940 0003168 103.7336 256.4259 15.32240301126584
