{
 "generated_at": "2026-07-06T09:00:32Z",
 "sources": [
  {
   "name": "CelesTrak",
   "url": "https://celestrak.org/NORAD/elements/",
   "license": "frei verfügbar; Attribution. Ursprünglich USSPACECOM/Space-Track."
  },
  {
   "name": "GCAT (J. McDowell, planet4589.org)",
   "url": "https://planet4589.org/space/gcat/",
   "license": "CC-BY 4.0"
  }
 ],
 "satellites": [
  {
   "norad": 59371,
   "name": "RESURS-P 4",
   "intl": "2024-061A",
   "group": "resource",
   "gcat": {
    "class": "C",
    "category": "IMG",
    "owner": "TSSKBP?",
    "state": "RU"
   },
   "omm": {
    "OBJECT_NAME": "RESURS-P 4",
    "OBJECT_ID": "2024-061A",
    "EPOCH": "2026-07-05T14:45:28.638720",
    "MEAN_MOTION": 15.32240301,
    "ECCENTRICITY": 0.00031685,
    "INCLINATION": 97.2758,
    "RA_OF_ASC_NODE": 134.194,
    "ARG_OF_PERICENTER": 103.7336,
    "MEAN_ANOMALY": 256.4259,
    "EPHEMERIS_TYPE": 0,
    "CLASSIFICATION_TYPE": "U",
    "NORAD_CAT_ID": 59371,
    "ELEMENT_SET_NO": 999,
    "REV_AT_EPOCH": 12658,
    "BSTAR": 0.00011390981,
    "MEAN_MOTION_DOT": 0.00003469,
    "MEAN_MOTION_DDOT": 0
   }
  },
  {
   "norad": 44233,
   "name": "RISAT-2B",
   "intl": "2019-028A",
   "group": "sar",
   "gcat": {
    "class": "C",
    "category": "IMG-R",
    "owner": "ISRO",
    "state": "IN"
   },
   "omm": {
    "OBJECT_NAME": "RISAT-2B",
    "OBJECT_ID": "2019-028A",
    "EPOCH": "2026-07-05T13:40:32.529216",
    "MEAN_MOTION": 15.01769546,
    "ECCENTRICITY": 0.00050302,
    "INCLINATION": 36.9964,
    "RA_OF_ASC_NODE": 245.0568,
    "ARG_OF_PERICENTER": 199.4363,
    "MEAN_ANOMALY": 160.6189,
    "EPHEMERIS_TYPE": 0,
    "CLASSIFICATION_TYPE": "U",
    "NORAD_CAT_ID": 44233,
    "ELEMENT_SET_NO": 999,
    "REV_AT_EPOCH": 39059,
    "BSTAR": 0.00024637378,
    "MEAN_MOTION_DOT": 0.00003192,
    "MEAN_MOTION_DDOT": 0
   }
  },
  {
   "norad": 44857,
   "name": "RISAT-2BR1",
   "intl": "2019-089F",
   "group": "sar",
   "gcat": {
    "class": "C",
    "category": "IMG-R",
    "owner": "ISRO",
    "state": "IN"
   },
   "omm": {
    "OBJECT_NAME": "RISAT-2BR1",
    "OBJECT_ID": "2019-089F",
    "EPOCH": "2026-07-05T15:19:06.648960",
    "MEAN_MOTION": 15.01772216,
    "ECCENTRICITY": 0.00130006,
    "INCLINATION": 36.9615,
    "RA_OF_ASC_NODE": 2.1201,
    "ARG_OF_PERICENTER": 319.1644,
    "MEAN_ANOMALY": 40.8124,
    "EPHEMERIS_TYPE": 0,
    "CLASSIFICATION_TYPE": "U",
    "NORAD_CAT_ID": 44857,
    "ELEMENT_SET_NO": 999,
    "REV_AT_EPOCH": 35997,
    "BSTAR": 0.0003889951,
    "MEAN_MOTION_DOT": 0.00005097,
    "MEAN_MOTION_DDOT": 0
   }
  },
  {
   "norad": 46905,
   "name": "RISAT-2BR2",
   "intl": "2020-081A",
   "group": "sar",
   "gcat": {
    "class": "C",
    "category": "IMG-R",
    "owner": "ISRO",
    "state": "IN"
   },
   "omm": {
    "OBJECT_NAME": "RISAT-2BR2",
    "OBJECT_ID": "2020-081A",
    "EPOCH": "2026-07-05T05:39:40.296384",
    "MEAN_MOTION": 15.01136109,
    "ECCENTRICITY": 0.0014818,
    "INCLINATION": 36.8985,
    "RA_OF_ASC_NODE": 117.1025,
    "ARG_OF_PERICENTER": 302.1495,
    "MEAN_ANOMALY": 57.7808,
    "EPHEMERIS_TYPE": 0,
    "CLASSIFICATION_TYPE": "U",
    "NORAD_CAT_ID": 46905,
    "ELEMENT_SET_NO": 999,
    "REV_AT_EPOCH": 31018,
    "BSTAR": 0.00030734,
    "MEAN_MOTION_DOT": 0.00003945,
    "MEAN_MOTION_DDOT": 0
   }
  },
  {
   "norad": 43641,
   "name": "SAOCOM 1A",
   "intl": "2018-076A",
   "group": "sar",
   "gcat": {
    "class": "C",
    "category": "IMG-R",
    "owner": "CONAE",
    "state": "AR"
   },
   "omm": {
    "OBJECT_NAME": "SAOCOM 1A",
    "OBJECT_ID": "2018-076A",
    "EPOCH": "2026-07-05T15:12:50.719104",
    "MEAN_MOTION": 14.82164086,
    "ECCENTRICITY": 0.00015628,
    "INCLINATION": 97.8885,
    "RA_OF_ASC_NODE": 13.114,
    "ARG_OF_PERICENTER": 81.131,
    "MEAN_ANOMALY": 279.008,
    "EPHEMERIS_TYPE": 0,
    "CLASSIFICATION_TYPE": "U",
    "NORAD_CAT_ID": 43641,
    "ELEMENT_SET_NO": 999,
    "REV_AT_EPOCH": 41883,
    "BSTAR": 0.000086225319,
    "MEAN_MOTION_DOT": 0.00000634,
    "MEAN_MOTION_DDOT": 0
   }
  },
  {
   "norad": 46265,
   "name": "SAOCOM 1B",
   "intl": "2020-059A",
   "group": "sar",
   "gcat": {
    "class": "C",
    "category": "IMG-R",
    "owner": "CONAE",
    "state": "AR"
   },
   "omm": {
    "OBJECT_NAME": "SAOCOM 1B",
    "OBJECT_ID": "2020-059A",
    "EPOCH": "2026-07-05T15:57:48.980736",
    "MEAN_MOTION": 14.82152556,
    "ECCENTRICITY": 0.00015434,
    "INCLINATION": 97.8888,
    "RA_OF_ASC_NODE": 12.2402,
    "ARG_OF_PERICENTER": 81.2547,
    "MEAN_ANOMALY": 278.8841,
    "EPHEMERIS_TYPE": 0,
    "CLASSIFICATION_TYPE": "U",
    "NORAD_CAT_ID": 46265,
    "ELEMENT_SET_NO": 999,
    "REV_AT_EPOCH": 31622,
    "BSTAR": 0.000061246526,
    "MEAN_MOTION_DOT": 0.00000435,
    "MEAN_MOTION_DDOT": 0
   }
  },
  {
   "norad": 31797,
   "name": "SAR-LUPE 2",
   "intl": "2007-030A",
   "group": "sar",
   "gcat": {
    "class": "D",
    "category": "IMG-R",
    "owner": "BWB",
    "state": "D"
   },
   "omm": {
    "OBJECT_NAME": "SAR-LUPE 2",
    "OBJECT_ID": "2007-030A",
    "EPOCH": "2026-07-05T14:22:52.937184",
    "MEAN_MOTION": 15.52864839,
    "ECCENTRICITY": 0.00035033,
    "INCLINATION": 98.1056,
    "RA_OF_ASC_NODE": 293.3556,
    "ARG_OF_PERICENTER": 219.9751,
    "MEAN_ANOMALY": 140.1243,
    "EPHEMERIS_TYPE": 0,
    "CLASSIFICATION_TYPE": "U",
    "NORAD_CAT_ID": 31797,
    "ELEMENT_SET_NO": 999,
    "REV_AT_EPOCH": 5979,
    "BSTAR": 0.00066336804,
    "MEAN_MOTION_DOT": 0.00041218,
    "MEAN_MOTION_DDOT": 0
   }
  },
  {
   "norad": 39086,
   "name": "SARAL",
   "intl": "2013-009A",
   "group": "resource",
   "gcat": {
    "class": "C",
    "category": "SCI",
    "owner": "ISRO/CNES",
    "state": "IN"
   },
   "omm": {
    "OBJECT_NAME": "SARAL",
    "OBJECT_ID": "2013-009A",
    "EPOCH": "2026-07-05T11:25:36.624576",
    "MEAN_MOTION": 14.32893598,
    "ECCENTRICITY": 0.0001086,
    "INCLINATION": 98.5554,
    "RA_OF_ASC_NODE": 12.812,
    "ARG_OF_PERICENTER": 195.8191,
    "MEAN_ANOMALY": 164.2959,
    "EPHEMERIS_TYPE": 0,
    "CLASSIFICATION_TYPE": "U",
    "NORAD_CAT_ID": 39086,
    "ELEMENT_SET_NO": 999,
    "REV_AT_EPOCH": 69822,
    "BSTAR": -0.0000012981,
    "MEAN_MOTION_DOT": -4.7e-7,
    "MEAN_MOTION_DDOT": 0
   }
  },
  {
   "norad": 43831,
   "name": "SAUDISAT 5A",
   "intl": "2018-102A",
   "group": "resource",
   "gcat": {
    "class": "C",
    "category": "TECH",
    "owner": "KACST",
    "state": "SA"
   },
   "omm": {
    "OBJECT_NAME": "SAUDISAT 5A",
    "OBJECT_ID": "2018-102A",
    "EPOCH": "2026-07-05T15:07:59.155392",
    "MEAN_MOTION": 15.2825138,
    "ECCENTRICITY": 0.00110875,
    "INCLINATION": 97.3053,
    "RA_OF_ASC_NODE": 247.8573,
    "ARG_OF_PERICENTER": 73.3327,
    "MEAN_ANOMALY": 286.9129,
    "EPHEMERIS_TYPE": 0,
    "CLASSIFICATION_TYPE": "U",
    "NORAD_CAT_ID": 43831,
    "ELEMENT_SET_NO": 999,
    "REV_AT_EPOCH": 41849,
    "BSTAR": 0.00024417371,
    "MEAN_MOTION_DOT": 0.00006659,
    "MEAN_MOTION_DDOT": 0
   }
  },
  {
   "norad": 43833,
   "name": "SAUDISAT 5B",
   "intl": "2018-102C",
   "group": "resource",
   "gcat": {
    "class": "C",
    "category": "TECH",
    "owner": "KACST",
    "state": "SA"
   },
   "omm": {
    "OBJECT_NAME": "SAUDISAT 5B",
    "OBJECT_ID": "2018-102C",
    "EPOCH": "2026-07-05T15:30:44.506944",
    "MEAN_MOTION": 15.28498249,
    "ECCENTRICITY": 0.00118408,
    "INCLINATION": 97.3161,
    "RA_OF_ASC_NODE": 250.9759,
    "ARG_OF_PERICENTER": 74.9162,
    "MEAN_ANOMALY": 285.3387,
    "EPHEMERIS_TYPE": 0,
    "CLASSIFICATION_TYPE": "U",
    "NORAD_CAT_ID": 43833,
    "ELEMENT_SET_NO": 999,
    "REV_AT_EPOCH": 41861,
    "BSTAR": 0.00023529954,
    "MEAN_MOTION_DOT": 0.00006465,
    "MEAN_MOTION_DDOT": 0
   }
  }
 ]
}
